{"type": "FeatureCollection", "features": [ {"type": "Feature", "properties": {"norad_id": 33492, "name": "GOSAT (IBUKI)", "group": "resource", "lat": 15.829222786278828, "lon": 90.80896465985474, "alt_km": 669.3976849038927, "timestamp": "2025-12-10T11:33:53.047950+00:00", "meta": {"OBJECT_NAME": "GOSAT (IBUKI)", "OBJECT_ID": "2009-002A", "EPOCH": "2025-12-09T17:29:31.577280", "MEAN_MOTION": 14.67546684, "ECCENTRICITY": 9.48e-05, "INCLINATION": 98.0769, "RA_OF_ASC_NODE": 92.374, "ARG_OF_PERICENTER": 88.233, "MEAN_ANOMALY": 271.8984, "EPHEMERIS_TYPE": 0, "CLASSIFICATION_TYPE": "U", "NORAD_CAT_ID": 33492, "ELEMENT_SET_NO": 999, "REV_AT_EPOCH": 90367, "BSTAR": 0.00030026, "MEAN_MOTION_DOT": 1.655e-05, "MEAN_MOTION_DDOT": 0}, "tle": {"line1": "1 33492U 09002A   25343.72883770  .00001655  00000+0  30026-3 0  9991", "line2": "2 33492  98.0769  92.3740 0000948  88.2330 271.8984 14.67546684903677"}}, "geometry": {"type": "Point", "coordinates": [90.80896465985474, 15.829222786278828]}}, {"type": "Feature", "properties": {"norad_id": 35681, "name": "DEIMOS-1", "group": "resource", "lat": 33.4328942807817, "lon": 140.05524337990954, "alt_km": 641.9988419919146, "timestamp": "2025-12-10T11:33:53.047962+00:00", "meta": {"OBJECT_NAME": "DEIMOS-1", "OBJECT_ID": "2009-041A", "EPOCH": "2025-12-10T04:53:57.950880", "MEAN_MOTION": 14.74944946, "ECCENTRICITY": 0.000275, "INCLINATION": 97.7148, "RA_OF_ASC_NODE": 144.9252, "ARG_OF_PERICENTER": 83.5292, "MEAN_ANOMALY": 276.6231, "EPHEMERIS_TYPE": 0, "CLASSIFICATION_TYPE": "U", "NORAD_CAT_ID": 35681, "ELEMENT_SET_NO": 999, "REV_AT_EPOCH": 87902, "BSTAR": 0.0001255, "MEAN_MOTION_DOT": 7.96e-06, "MEAN_MOTION_DDOT": 0}, "tle": {"line1": "1 35681U 09041A   25344.20414295  .00000796  00000+0  12550-3 0  9999", "line2": "2 35681  97.7148 144.9252 0002750  83.5292 276.6231 14.74944946879026"}}, "geometry": {"type": "Point", "coordinates": [140.05524337990954, 33.4328942807817]}}, {"type": "Feature", "properties": {"norad_id": 35682, "name": "DUBAISAT-1", "group": "resource", "lat": -28.222660348978987, "lon": 119.51193268612485, "alt_km": 645.5214689092063, "timestamp": "2025-12-10T11:33:53.047972+00:00", "meta": {"OBJECT_NAME": "DUBAISAT-1", "OBJECT_ID": "2009-041B", "EPOCH": "2025-12-09T19:24:29.093184", "MEAN_MOTION": 14.74591888, "ECCENTRICITY": 0.0009749, "INCLINATION": 97.9789, "RA_OF_ASC_NODE": 114.5317, "ARG_OF_PERICENTER": 324.7314, "MEAN_ANOMALY": 35.3249, "EPHEMERIS_TYPE": 0, "CLASSIFICATION_TYPE": "U", "NORAD_CAT_ID": 35682, "ELEMENT_SET_NO": 999, "REV_AT_EPOCH": 87718, "BSTAR": 0.00038428, "MEAN_MOTION_DOT": 2.512e-05, "MEAN_MOTION_DDOT": 0}, "tle": {"line1": "1 35682U 09041B   25343.80867006  .00002512  00000+0  38428-3 0  9997", "line2": "2 35682  97.9789 114.5317 0009749 324.7314  35.3249 14.74591888877182"}}, "geometry": {"type": "Point", "coordinates": [119.51193268612485, -28.222660348978987]}}, {"type": "Feature", "properties": {"norad_id": 35931, "name": "OCEANSAT-2", "group": "resource", "lat": 37.0872639178469, "lon": -20.96370475159169, "alt_km": 880.8337307275824, "timestamp": "2025-12-10T11:33:53.047983+00:00", "meta": {"OBJECT_NAME": "OCEANSAT-2", "OBJECT_ID": "2009-051A", "EPOCH": "2025-12-10T04:31:25.104864", "MEAN_MOTION": 13.99625185, "ECCENTRICITY": 0.0016312, "INCLINATION": 98.2225, "RA_OF_ASC_NODE": 345.0479, "ARG_OF_PERICENTER": 51.7143, "MEAN_ANOMALY": 308.5488, "EPHEMERIS_TYPE": 0, "CLASSIFICATION_TYPE": "U", "NORAD_CAT_ID": 35931, "ELEMENT_SET_NO": 999, "REV_AT_EPOCH": 85289, "BSTAR": -7.8585e-05, "MEAN_MOTION_DOT": -1.52e-06, "MEAN_MOTION_DDOT": 0}, "tle": {"line1": "1 35931U 09051A   25344.18848501 -.00000152  00000+0 -78585-4 0  9995", "line2": "2 35931  98.2225 345.0479 0016312  51.7143 308.5488 13.99625185852894"}}, "geometry": {"type": "Point", "coordinates": [-20.96370475159169, 37.0872639178469]}}, {"type": "Feature", "properties": {"norad_id": 35946, "name": "WORLDVIEW-2 (WV-2)", "group": "resource", "lat": -29.763046221634653, "lon": -129.29455130408826, "alt_km": 775.0016587393266, "timestamp": "2025-12-10T11:33:53.047993+00:00", "meta": {"OBJECT_NAME": "WORLDVIEW-2 (WV-2)", "OBJECT_ID": "2009-055A", "EPOCH": "2025-12-10T03:54:35.568288", "MEAN_MOTION": 14.37650887, "ECCENTRICITY": 0.0005348, "INCLINATION": 98.4762, "RA_OF_ASC_NODE": 55.2829, "ARG_OF_PERICENTER": 73.187, "MEAN_ANOMALY": 286.9903, "EPHEMERIS_TYPE": 0, "CLASSIFICATION_TYPE": "U", "NORAD_CAT_ID": 35946, "ELEMENT_SET_NO": 999, "REV_AT_EPOCH": 84848, "BSTAR": 0.00010681, "MEAN_MOTION_DOT": 2.77e-06, "MEAN_MOTION_DDOT": 0}, "tle": {"line1": "1 35946U 09055A   25344.16291167  .00000277  00000+0  10681-3 0  9991", "line2": "2 35946  98.4762  55.2829 0005348  73.1870 286.9903 14.37650887848480"}}, "geometry": {"type": "Point", "coordinates": [-129.29455130408826, -29.763046221634653]}}, {"type": "Feature", "properties": {"norad_id": 36036, "name": "SMOS", "group": "resource", "lat": -48.10643547785289, "lon": -19.961672200495524, "alt_km": 766.8294949884485, "timestamp": "2025-12-10T11:33:53.048016+00:00", "meta": {"OBJECT_NAME": "SMOS", "OBJECT_ID": "2009-059A", "EPOCH": "2025-12-10T02:09:57.515328", "MEAN_MOTION": 14.39737496, "ECCENTRICITY": 0.000111, "INCLINATION": 98.4382, "RA_OF_ASC_NODE": 169.1779, "ARG_OF_PERICENTER": 84.668, "MEAN_ANOMALY": 275.4635, "EPHEMERIS_TYPE": 0, "CLASSIFICATION_TYPE": "U", "NORAD_CAT_ID": 36036, "ELEMENT_SET_NO": 999, "REV_AT_EPOCH": 84624, "BSTAR": 0.00020312, "MEAN_MOTION_DOT": 5.93e-06, "MEAN_MOTION_DDOT": 0}, "tle": {"line1": "1 36036U 09059A   25344.09024902  .00000593  00000+0  20312-3 0  9992", "line2": "2 36036  98.4382 169.1779 0001110  84.6680 275.4635 14.39737496846248"}}, "geometry": {"type": "Point", "coordinates": [-19.961672200495524, -48.10643547785289]}}, {"type": "Feature", "properties": {"norad_id": 36110, "name": "YAOGAN-7", "group": "resource", "lat": 72.65649324054755, "lon": 73.12219983920036, "alt_km": 645.9376800108375, "timestamp": "2025-12-10T11:33:53.048028+00:00", "meta": {"OBJECT_NAME": "YAOGAN-7", "OBJECT_ID": "2009-069A", "EPOCH": "2025-12-10T02:57:46.662336", "MEAN_MOTION": 14.77726133, "ECCENTRICITY": 0.002344, "INCLINATION": 98.0303, "RA_OF_ASC_NODE": 225.8898, "ARG_OF_PERICENTER": 290.1998, "MEAN_ANOMALY": 69.6691, "EPHEMERIS_TYPE": 0, "CLASSIFICATION_TYPE": "U", "NORAD_CAT_ID": 36110, "ELEMENT_SET_NO": 999, "REV_AT_EPOCH": 86170, "BSTAR": 0.00015275, "MEAN_MOTION_DOT": 1.046e-05, "MEAN_MOTION_DDOT": 0}, "tle": {"line1": "1 36110U 09069A   25344.12345674  .00001046  00000+0  15275-3 0  9998", "line2": "2 36110  98.0303 225.8898 0023440 290.1998  69.6691 14.77726133861709"}}, "geometry": {"type": "Point", "coordinates": [73.12219983920036, 72.65649324054755]}}, {"type": "Feature", "properties": {"norad_id": 36605, "name": "TANDEM-X", "group": "resource", "lat": 14.711014910752771, "lon": -12.071684996781025, "alt_km": 508.85625693844213, "timestamp": "2025-12-10T11:33:53.048039+00:00", "meta": {"OBJECT_NAME": "TANDEM-X", "OBJECT_ID": "2010-030A", "EPOCH": "2025-12-09T11:47:13.197408", "MEAN_MOTION": 15.19145601, "ECCENTRICITY": 0.0002009, "INCLINATION": 97.445, "RA_OF_ASC_NODE": 348.9195, "ARG_OF_PERICENTER": 85.8365, "MEAN_ANOMALY": 274.3099, "EPHEMERIS_TYPE": 0, "CLASSIFICATION_TYPE": "U", "NORAD_CAT_ID": 36605, "ELEMENT_SET_NO": 999, "REV_AT_EPOCH": 85784, "BSTAR": 0.00012722, "MEAN_MOTION_DOT": 2.605e-05, "MEAN_MOTION_DDOT": 0}, "tle": {"line1": "1 36605U 10030A   25343.49112497  .00002605  00000+0  12722-3 0  9997", "line2": "2 36605  97.4450 348.9195 0002009  85.8365 274.3099 15.19145601857845"}}, "geometry": {"type": "Point", "coordinates": [-12.071684996781025, 14.711014910752771]}}, {"type": "Feature", "properties": {"norad_id": 36795, "name": "CARTOSAT-2B", "group": "resource", "lat": 24.09859026989353, "lon": 30.077139657279904, "alt_km": 627.9955026439657, "timestamp": "2025-12-10T11:33:53.048049+00:00", "meta": {"OBJECT_NAME": "CARTOSAT-2B", "OBJECT_ID": "2010-035A", "EPOCH": "2025-12-10T04:57:33.554304", "MEAN_MOTION": 14.78782447, "ECCENTRICITY": 0.0012929, "INCLINATION": 97.7851, "RA_OF_ASC_NODE": 33.3192, "ARG_OF_PERICENTER": 84.7725, "MEAN_ANOMALY": 275.4962, "EPHEMERIS_TYPE": 0, "CLASSIFICATION_TYPE": "U", "NORAD_CAT_ID": 36795, "ELEMENT_SET_NO": 999, "REV_AT_EPOCH": 83192, "BSTAR": 9.8869e-05, "MEAN_MOTION_DOT": 6.77e-06, "MEAN_MOTION_DDOT": 0}, "tle": {"line1": "1 36795U 10035A   25344.20663836  .00000677  00000+0  98869-4 0  9994", "line2": "2 36795  97.7851  33.3192 0012929  84.7725 275.4962 14.78782447831926"}}, "geometry": {"type": "Point", "coordinates": [30.077139657279904, 24.09859026989353]}}, {"type": "Feature", "properties": {"norad_id": 36834, "name": "YAOGAN-10", "group": "resource", "lat": 56.30907715649842, "lon": -7.724383561088503, "alt_km": 608.6193446920306, "timestamp": "2025-12-10T11:33:53.048059+00:00", "meta": {"OBJECT_NAME": "YAOGAN-10", "OBJECT_ID": "2010-038A", "EPOCH": "2025-12-10T05:25:23.467584", "MEAN_MOTION": 14.84588244, "ECCENTRICITY": 0.0001412, "INCLINATION": 97.9142, "RA_OF_ASC_NODE": 4.0652, "ARG_OF_PERICENTER": 84.7087, "MEAN_ANOMALY": 45.6891, "EPHEMERIS_TYPE": 0, "CLASSIFICATION_TYPE": "U", "NORAD_CAT_ID": 36834, "ELEMENT_SET_NO": 999, "REV_AT_EPOCH": 82916, "BSTAR": 0.0001831, "MEAN_MOTION_DOT": 1.492e-05, "MEAN_MOTION_DDOT": 0}, "tle": {"line1": "1 36834U 10038A   25344.22596606  .00001492  00000+0  18310-3 0  9991", "line2": "2 36834  97.9142   4.0652 0001412  84.7087  45.6891 14.84588244829164"}}, "geometry": {"type": "Point", "coordinates": [-7.724383561088503, 56.30907715649842]}}]}